#cP2023 11  5  0  0  0.00000000      96 ORBIT IGS20 HLM  IGS
## 2287      0.00000000   900.00000000 60253 0.0000000000000
+   32   G01G02G03G04G05G06G07G08G09G10G11G12G13G14G15G16G17
+        G18G19G20G21G22G23G24G25G26G27G28G29G30G31G32  0  0
+          0  0  0  0  0  0  0  0  0  0  0  0  0  0  0  0  0
+          0  0  0  0  0  0  0  0  0  0  0  0  0  0  0  0  0
+          0  0  0  0  0  0  0  0  0  0  0  0  0  0  0  0  0
++         2  2  2  2  2  2  2  2  2  2  2  2  2  2  2  2  2
++         2  2  2  2  2  2  2  2  2  2  2  2  2  2  2  0  0
++         0  0  0  0  0  0  0  0  0  0  0  0  0  0  0  0  0
++         0  0  0  0  0  0  0  0  0  0  0  0  0  0  0  0  0
++         0  0  0  0  0  0  0  0  0  0  0  0  0  0  0  0  0
%c G  cc GPS ccc cccc cccc cccc cccc ccccc ccccc ccccc ccccc
%c cc cc ccc ccc cccc cccc cccc cccc ccccc ccccc ccccc ccccc
%f  1.2500000  1.025000000  0.00000000000  0.000000000000000
%f  0.0000000  0.000000000  0.00000000000  0.000000000000000
%i    0    0    0    0      0      0      0      0         0
%i    0    0    0    0      0      0      0      0         0
/* RAPID ORBIT COMBINATION FROM WEIGHTED AVERAGE OF:        
/* cod emr esa gfz grg jgx jpl ngs sio usn whu              
/* REFERENCED TO IGS TIME (IGST) AND TO WEIGHTED MEAN POLE: 
/* PCV:IGS20      OL/AL:FES2014b NONE     Y  ORB:CMB CLK:CMB
*  2023 11  5  3 45  0.00000000
PG01  13433.509741  -8714.945917  20772.389616    163.215820  7  9  3 109       
PG02  15141.156572  -2216.981803  22214.526007   -533.131443  5  5  5  80       
PG03  23370.671618 -11924.160846   3585.526711    -35.064104  3  5  4  75       
PG04  19393.586016  -3289.783416 -17898.800399    204.094965  9  6  7  74       
PG05 -21393.048292   1663.842091 -15895.327018   -149.189474  5  7  4  97       
PG06  -6230.710417 -24343.204422  -8387.785794    514.054249  6  5  5  79       
PG07   6034.368133 -23502.399346  -9743.370802     21.779404  6  5  4  83       
PG08  24302.212359   3527.558710  10550.756478   -150.606747  6  2     94       
PG09  10090.008575 -11964.985420 -21554.209173    -12.291015  9  6  6  78       
PG10  -1137.503900  16967.542940  20498.799359    -60.154762  4     4  96       
PG11 -12121.759367 -15637.944398 -17723.076528   -446.358933  4  6  6  83       
PG12 -24312.675321   9159.091056   5054.947035   -443.571926  6  6  6  95       
PG13 -22787.790664 -13360.191154   3522.552493    591.791829  5  9  5  75       
PG14   5113.586572 -18422.573632  18387.533967    234.194667  3  8  5  96       
PG15 -24219.274791    -99.863092  10662.386935     93.984278  6  6  7 106       
PG16  18517.807472   5144.970286 -18838.439705   -427.557270  6  7  4  77       
PG17  -4876.515729 -18196.286669  19108.772605    723.482706  4  5  3 108       
PG18  -5317.488842  24439.808467  -8645.887979   -469.891684  8 10  4  87       
PG19 -13565.279013 -19256.931397  12411.146715    394.544470  4  5  5 113       
PG20 -13458.577017  -8285.142193 -21277.987002    403.234141  3  4  2  88       
PG21  15706.520095   2446.657072  21888.528985    145.067958  4  4  3  83       
PG22  -1570.495178 -16067.632101  21585.449590     89.773343  5  5  3 108       
PG23 -13426.767356  19170.892331  12389.766805     93.688470  7  7  4 110       
PG24 -15205.699802   3712.131446  21044.190686   -363.640791  4  2  7 104       
PG25 -18750.536614  17627.395165  -6282.376857    475.958654  6  6  7 101       
PG26  10720.159128  11791.992983 -21393.263666    218.770217  5  6  2  92       
PG27  23224.690010  13282.469759  -1639.443688    -65.468857  2  4  3  73       
PG28   6291.722285  25030.762922  -6299.645493    -39.334560  5  8  6  93       
PG29 -11164.247969  10460.270610 -21765.402320   -610.247588  4  6  4 116       
PG30   -768.102243 -26402.105909   -246.639172   -471.581786  4  2  1  89       
PG31  10601.713188  19520.743658 -14440.603799   -225.435722  3  8  5  89       
PG32  10062.594115  18289.757462  16722.551307   -581.871661  2  4  4 104       
*  2023 11  5  4  0  0.00000000
PG01  13630.737090  -6228.968686  21541.708138    163.215686  7  9  4 115       
PG02  15515.336310    176.627573  22079.403147   -533.126925  5  4  5  87       
PG03  22995.706457 -11426.996777   6412.554417    -35.041903  4  4  3  83       
PG04  21043.883584  -2254.273496 -16117.890671    204.104449  9  6  7  55       
PG05 -19968.083814    417.009785 -17736.537619   -149.190799  5  7  4  97       
PG06  -6110.251781 -25161.841660  -5619.870894    514.045778  6  6  5  99       
PG07   6418.738742 -22189.432830 -12198.218072     21.770312  6  5  3  89       
PG08  25182.897336   4156.738084   7999.122412   -150.608324  6  2     98       
PG09  12267.781678 -10920.091816 -20974.160216    -12.280991  9  5  6  75       
PG10  -3042.708643  18149.063040  19212.758689    -60.155995  4  3  5  98       
PG11 -12018.706272 -17565.512772 -15900.573950   -446.373866  5  6  6  78       
PG12 -23771.940964   8560.342034   7793.575901   -443.575652  6  5  6  98       
PG13 -22886.187010 -13681.755281    674.161600    591.795310  5  8  5  74       
PG14   6906.816432 -19360.365064  16748.068557    234.204460  4  9  5 100       
PG15 -25217.101467   -720.150940   8165.209111     93.987670  5  6  7  78       
PG16  16678.575206   6273.352312 -20149.922045   -427.551590  6  7  4  85       
PG17  -2929.589860 -17216.378539  20411.273181    723.482563  4  5  3 108       
PG18  -5586.108898  23310.879239 -11224.484138   -469.901695  8 10  4  83       
PG19 -12151.189533 -18569.596404  14652.598893    394.549591  4  5  5 110       
PG20 -11713.360922 -10028.301482 -21574.036220    403.232264  4  4  2  93       
PG21  16074.863977   4767.591346  21295.832893    145.067447  4  3  3  88       
PG22    487.465556 -17152.430237  20795.390433     89.766856  5  6  4 108       
PG23 -14574.811063  19763.062193   9894.250732     93.694072  7  7  4 100       
PG24 -15635.544010   1246.916597  21057.866368   -363.649054  4  3  7 104       
PG25 -19349.938158  17694.048025  -3502.202694    475.960220  6  7  7  80       
PG26   8807.707996  13289.056047 -21355.958984    218.767955  4  6  2 101       
PG27  22850.227969  13334.048510  -4451.468636    -65.473755  3  5  3  81       
PG28   6106.719296  25612.852159  -3516.106212    -39.341764  5  8  6  94       
PG29 -13255.524910   9199.631228 -21160.889001   -610.247298  3  6  4 110       
PG30   -407.565715 -26222.338826  -3058.038239   -471.578258  4  2  1  97       
PG31  10443.206427  21040.943354 -12179.286619   -225.435895  2  8  5  95       
PG32   8220.660929  17574.539558  18410.552448   -581.875873  2  4  4  98       
*  2023 11  5  4 15  0.00000000
PG01  13973.156568  -3693.984458  21926.766270    163.215571  7  9  5 114       
PG02  16012.140737   2510.860023  21582.032250   -533.122411  5  3  5  94       
PG03  22398.601878 -10716.113302   9128.035050    -35.019685  5  4  3  89       
PG04  22548.262194  -1397.137068 -14060.932905    204.113939  9  6  6  42       
PG05 -18467.646741  -1027.366264 -19277.665841   -149.192010  5  6  3  76       
PG06  -5997.042670 -25667.330870  -2754.522006    514.037246  6  6  5  88       
PG07   6903.429082 -20627.196521 -14432.407697     21.761490  6  4  3  86       
PG08  25819.731131   4633.940479   5312.668680   -150.610348  6  3  1  96       
PG09  14416.686725 -10020.081529 -20036.414221    -12.270941  9  5  6  64       
PG10  -4753.201470  19335.143775  17597.753365    -60.156451  4  5  4 101       
PG11 -11999.435893 -19274.283214 -13804.657251   -446.388767  5  7  6  88       
PG12 -23010.013123   7763.309879  10396.225987   -443.579161  5  5  6  88       
PG13 -22724.701298 -13833.522867  -2185.708961    591.799169  5  8  5  71       
PG14   8488.846882 -20267.986453  14818.913543    234.214263  5  9  5  98       
PG15 -25960.106150  -1216.691019   5526.747949     93.991032  5  6  8  89       
PG16  14793.798197   7569.408835 -21127.566725   -427.545308  5  8  3  56       
PG17   -821.185401 -16290.339790  21374.261349    723.482330  4  5  3 107       
PG18  -5947.265874  21917.770389 -13607.901588   -469.911697  8 10  5  77       
PG19 -10488.044821 -17845.606944  16642.789941    394.553864  4  5  4 112       
PG20 -10051.054186 -11864.983388 -21497.105174    403.230717  4  3  2  83       
PG21  16549.450841   6976.386377  20358.259278    145.066962  4  2  3  92       
PG22   2393.500621 -18288.998548  19663.178755     89.760820  5  6  4 104       
PG23 -15462.340586  20230.176730   7226.798456     93.699609  7  8  5  93       
PG24 -16174.863858  -1171.507840  20696.565771   -363.657314  5  3  6 103       
PG25 -19697.480592  17590.444442   -661.051418    475.961839  6  8  7  80       
PG26   6984.750319  14862.150004 -20954.902857    218.765730  4  7  2  90       
PG27  22192.300271  13287.873212  -7189.159109    -65.478631  4  6  3  64       
PG28   5899.262808  25889.759171   -672.079934    -39.348962  5  8  6  91       
PG29 -15332.223632   8094.906650 -20194.323087   -610.247393  3  6  4 112       
PG30      1.480820 -25745.988754  -5815.852674   -471.574736  4  3  1  94       
PG31  10330.487023  22302.767505  -9705.997732   -225.436300  2  8  5  76       
PG32   6183.624933  16893.356084  19788.310975   -581.880071  2  5  4 109       
EOF
